start=new Date('2021-08-25T00:00:00.000Z').valueOf();
sats=[{"COUNTRY_CODE":"US","MEAN_MOTION_DDOT":"0.0000000000000","OBJECT_NAME":"STARLINK-1202","PERIOD":"95.593","EPOCH":"2021-08-24T10:22:22.272672","ELEMENT_SET_NO":"999","RA_OF_ASC_NODE":"290.8284","TLE_LINE2":"2 45183  53.0544 290.8284 0000405 104.6570 255.4464 15.06392702 84905","APOAPSIS":"547.516","PERIAPSIS":"546.955","MEAN_ELEMENT_THEORY":"SGP4","EPHEMERIS_TYPE":"0","TLE_LINE1":"1 45183U 20012F   21236.43220223  .00000518  00000-0  53638-4 0  9991","ARG_OF_PERICENTER":"104.6570","REF_FRAME":"TEME","CENTER_NAME":"EARTH","LAUNCH_DATE":"2020-02-17","MEAN_ANOMALY":"255.4464","SEMIMAJOR_AXIS":"6925.371","GP_ID":"183360075","CLASSIFICATION_TYPE":"U","TIME_SYSTEM":"UTC","INCLINATION":"53.0544","FILE":"3102457","OBJECT_ID":"2020-012F","NORAD_CAT_ID":"45183","MEAN_MOTION_DOT":"0.00000518","SITE":"AFETR","BSTAR":"0.00005363800000","OBJECT_TYPE":"PAYLOAD","ECCENTRICITY":"0.00004050","REV_AT_EPOCH":"8490","RCS_SIZE":"LARGE","MEAN_MOTION":"15.06392702","DECAY_DATE":null},{"EPHEMERIS_TYPE":"0","MEAN_ELEMENT_THEORY":"SGP4","REF_FRAME":"TEME","TLE_LINE1":"1 45184U 20012G   21236.82106620  .00000160  00000-0  29588-4 0  9999","ARG_OF_PERICENTER":"93.7255","MEAN_ANOMALY":"266.3792","CENTER_NAME":"EARTH","LAUNCH_DATE":"2020-02-17","INCLINATION":"53.0529","TIME_SYSTEM":"UTC","SEMIMAJOR_AXIS":"6925.357","GP_ID":"183384262","CLASSIFICATION_TYPE":"U","NORAD_CAT_ID":"45184","MEAN_MOTION_DOT":"0.00000160","FILE":"3102580","OBJECT_ID":"2020-012G","ECCENTRICITY":"0.00005080","OBJECT_TYPE":"PAYLOAD","REV_AT_EPOCH":"8427","RCS_SIZE":"LARGE","SITE":"AFETR","BSTAR":"0.00002958800000","MEAN_MOTION":"15.06397242","DECAY_DATE":null,"COUNTRY_CODE":"US","OBJECT_NAME":"STARLINK-1205","MEAN_MOTION_DDOT":"0.0000000000000","RA_OF_ASC_NODE":"269.0880","ELEMENT_SET_NO":"999","PERIOD":"95.592","EPOCH":"2021-08-24T19:42:20.119680","TLE_LINE2":"2 45184  53.0529 269.0880 0000508  93.7255 266.3792 15.06397242 84270","APOAPSIS":"547.574","PERIAPSIS":"546.870"},{"MEAN_ELEMENT_THEORY":"SGP4","EPHEMERIS_TYPE":"0","LAUNCH_DATE":"2020-02-17","CENTER_NAME":"EARTH","MEAN_ANOMALY":"286.5741","ARG_OF_PERICENTER":"73.5276","TLE_LINE1":"1 45185U 20012H   21236.62386063 -.00001481  00000-0 -80606-4 0  9996","REF_FRAME":"TEME","OBJECT_ID":"2020-012H","FILE":"3102580","NORAD_CAT_ID":"45185","MEAN_MOTION_DOT":"-0.00001481","CLASSIFICATION_TYPE":"U","GP_ID":"183385513","SEMIMAJOR_AXIS":"6925.374","TIME_SYSTEM":"UTC","INCLINATION":"53.0542","DECAY_DATE":null,"MEAN_MOTION":"15.06391553","BSTAR":"-0.00008060600000","SITE":"AFETR","REV_AT_EPOCH":"8487","RCS_SIZE":"LARGE","OBJECT_TYPE":"PAYLOAD","ECCENTRICITY":"0.00002530","COUNTRY_CODE":"US","OBJECT_NAME":"STARLINK-1216","MEAN_MOTION_DDOT":"0.0000000000000","ELEMENT_SET_NO":"999","PERIOD":"95.593","EPOCH":"2021-08-24T14:58:21.558432","RA_OF_ASC_NODE":"289.9694","PERIAPSIS":"547.064","APOAPSIS":"547.415","TLE_LINE2":"2 45185  53.0542 289.9694 0000253  73.5276 286.5741 15.06391553 84879"},{"PERIAPSIS":"546.991","APOAPSIS":"547.510","TLE_LINE2":"2 45186  53.0544 289.0089 0000375  89.3233 270.7799 15.06388024 84905","RA_OF_ASC_NODE":"289.0089","ELEMENT_SET_NO":"999","PERIOD":"95.593","EPOCH":"2021-08-24T20:06:12.739680","MEAN_MOTION_DDOT":"0.0000000000000","OBJECT_NAME":"STARLINK-1224","COUNTRY_CODE":"US","DECAY_DATE":null,"MEAN_MOTION":"15.06388024","REV_AT_EPOCH":"8490","RCS_SIZE":"LARGE","OBJECT_TYPE":"PAYLOAD","ECCENTRICITY":"0.00003750","BSTAR":"0.00004196300000","SITE":"AFETR","NORAD_CAT_ID":"45186","MEAN_MOTION_DOT":"0.00000344","OBJECT_ID":"2020-012J","FILE":"3102580","TIME_SYSTEM":"UTC","INCLINATION":"53.0544","CLASSIFICATION_TYPE":"U","GP_ID":"183385264","SEMIMAJOR_AXIS":"6925.385","MEAN_ANOMALY":"270.7799","LAUNCH_DATE":"2020-02-17","CENTER_NAME":"EARTH","REF_FRAME":"TEME","ARG_OF_PERICENTER":"89.3233","TLE_LINE1":"1 45186U 20012J   21236.83764745  .00000344  00000-0  41963-4 0  9995","EPHEMERIS_TYPE":"0","MEAN_ELEMENT_THEORY":"SGP4"},{"APOAPSIS":"547.565","TLE_LINE2":"2 45187  53.0534 288.9997 0000508 113.3737 246.7305 15.06400163 84956","PERIAPSIS":"546.861","RA_OF_ASC_NODE":"288.9997","EPOCH":"2021-08-24T20:11:30.791904","PERIOD":"95.592","ELEMENT_SET_NO":"999","MEAN_MOTION_DDOT":"0.0000000000000","OBJECT_NAME":"STARLINK-1225","COUNTRY_CODE":"US","RCS_SIZE":"LARGE","REV_AT_EPOCH":"8495","OBJECT_TYPE":"PAYLOAD","ECCENTRICITY":"0.00005080","BSTAR":"0.00004868100000","SITE":"AFETR","DECAY_DATE":null,"MEAN_MOTION":"15.06400163","TIME_SYSTEM":"UTC","INCLINATION":"53.0534","CLASSIFICATION_TYPE":"U","GP_ID":"183384012","SEMIMAJOR_AXIS":"6925.348","NORAD_CAT_ID":"45187","MEAN_MOTION_DOT":"0.00000444","OBJECT_ID":"2020-012K","FILE":"3102580","REF_FRAME":"TEME","ARG_OF_PERICENTER":"113.3737","TLE_LINE1":"1 45187U 20012K   21236.84132861  .00000444  00000-0  48681-4 0  9990","MEAN_ANOMALY":"246.7305","CENTER_NAME":"EARTH","LAUNCH_DATE":"2020-02-17","EPHEMERIS_TYPE":"0","MEAN_ELEMENT_THEORY":"SGP4"},{"TLE_LINE2":"2 45188  53.0537 249.4621 0000468  53.6165 306.4867 15.06396682 85455","APOAPSIS":"547.548","PERIAPSIS":"546.900","RA_OF_ASC_NODE":"249.4621","PERIOD":"95.592","ELEMENT_SET_NO":"999","EPOCH":"2021-08-24T17:42:55.707264","OBJECT_NAME":"STARLINK-1228","MEAN_MOTION_DDOT":"0.0000000000000","COUNTRY_CODE":"US","OBJECT_TYPE":"PAYLOAD","ECCENTRICITY":"0.00004680","RCS_SIZE":"LARGE","REV_AT_EPOCH":"8545","SITE":"AFETR","BSTAR":"0.00004327500000","MEAN_MOTION":"15.06396682","DECAY_DATE":null,"TIME_SYSTEM":"UTC","INCLINATION":"53.0537","GP_ID":"183384762","SEMIMAJOR_AXIS":"6925.359","CLASSIFICATION_TYPE":"U","NORAD_CAT_ID":"45188","MEAN_MOTION_DOT":"0.00000364","FILE":"3102580","OBJECT_ID":"2020-012L","REF_FRAME":"TEME","TLE_LINE1":"1 45188U 20012L   21236.73814476  .00000364  00000-0  43275-4 0  9993","ARG_OF_PERICENTER":"53.6165","MEAN_ANOMALY":"306.4867","CENTER_NAME":"EARTH","LAUNCH_DATE":"2020-02-17","EPHEMERIS_TYPE":"0","MEAN_ELEMENT_THEORY":"SGP4"},{"OBJECT_TYPE":"PAYLOAD","ECCENTRICITY":"0.00006720","REV_AT_EPOCH":"8218","RCS_SIZE":"LARGE","SITE":"AFETR","BSTAR":"-0.00007941000000","MEAN_MOTION":"15.06389797","DECAY_DATE":null,"INCLINATION":"53.0545","TIME_SYSTEM":"UTC","SEMIMAJOR_AXIS":"6925.380","GP_ID":"183385014","CLASSIFICATION_TYPE":"U","MEAN_MOTION_DOT":"-0.00001463","NORAD_CAT_ID":"45189","FILE":"3102580","OBJECT_ID":"2020-012M","REF_FRAME":"TEME","TLE_LINE1":"1 45189U 20012M   21236.84502411 -.00001463  00000-0 -79410-4 0  9992","ARG_OF_PERICENTER":"100.3424","MEAN_ANOMALY":"259.7641","LAUNCH_DATE":"2020-02-17","CENTER_NAME":"EARTH","EPHEMERIS_TYPE":"0","MEAN_ELEMENT_THEORY":"SGP4","TLE_LINE2":"2 45189  53.0545 288.9765 0000672 100.3424 259.7641 15.06389797 82183","APOAPSIS":"547.710","PERIAPSIS":"546.779","RA_OF_ASC_NODE":"288.9765","PERIOD":"95.593","ELEMENT_SET_NO":"999","EPOCH":"2021-08-24T20:16:50.083104","OBJECT_NAME":"STARLINK-1230","MEAN_MOTION_DDOT":"0.0000000000000","COUNTRY_CODE":"US"},{"GP_ID":"183385764","SEMIMAJOR_AXIS":"6925.349","CLASSIFICATION_TYPE":"U","INCLINATION":"53.0537","TIME_SYSTEM":"UTC","FILE":"3102580","OBJECT_ID":"2020-012N","NORAD_CAT_ID":"45190","MEAN_MOTION_DOT":"0.00000099","SITE":"AFETR","BSTAR":"0.00002553700000","OBJECT_TYPE":"PAYLOAD","ECCENTRICITY":"0.00006180","REV_AT_EPOCH":"8540","RCS_SIZE":"LARGE","MEAN_MOTION":"15.06399783","DECAY_DATE":null,"MEAN_ELEMENT_THEORY":"SGP4","EPHEMERIS_TYPE":"0","TLE_LINE1":"1 45190U 20012N   21236.73075856  .00000099  00000-0  25537-4 0  9993","ARG_OF_PERICENTER":"50.6840","REF_FRAME":"TEME","CENTER_NAME":"EARTH","LAUNCH_DATE":"2020-02-17","MEAN_ANOMALY":"309.4204","EPOCH":"2021-08-24T17:32:17.539584","PERIOD":"95.592","ELEMENT_SET_NO":"999","RA_OF_ASC_NODE":"249.4926","TLE_LINE2":"2 45190  53.0537 249.4926 0000618  50.6840 309.4204 15.06399783 85408","APOAPSIS":"547.642","PERIAPSIS":"546.786","COUNTRY_CODE":"US","MEAN_MOTION_DDOT":"0.0000000000000","OBJECT_NAME":"STARLINK-1234"},{"EPOCH":"2021-08-24T20:27:27.106848","PERIOD":"95.593","ELEMENT_SET_NO":"999","RA_OF_ASC_NODE":"288.9492","TLE_LINE2":"2 45191  53.0552 288.9492 0000344 142.5914 217.5099 15.06387404 82170","APOAPSIS":"547.490","PERIAPSIS":"547.014","COUNTRY_CODE":"US","OBJECT_NAME":"STARLINK-1236","MEAN_MOTION_DDOT":"0.0000000000000","SEMIMAJOR_AXIS":"6925.387","GP_ID":"183384512","CLASSIFICATION_TYPE":"U","TIME_SYSTEM":"UTC","INCLINATION":"53.0552","FILE":"3102580","OBJECT_ID":"2020-012P","MEAN_MOTION_DOT":"0.00000627","NORAD_CAT_ID":"45191","SITE":"AFETR","BSTAR":"0.00006093800000","OBJECT_TYPE":"PAYLOAD","ECCENTRICITY":"0.00003440","RCS_SIZE":"LARGE","REV_AT_EPOCH":"8217","MEAN_MOTION":"15.06387404","DECAY_DATE":null,"MEAN_ELEMENT_THEORY":"SGP4","EPHEMERIS_TYPE":"0","TLE_LINE1":"1 45191U 20012P   21236.85239707  .00000627  00000-0  60938-4 0  9995","ARG_OF_PERICENTER":"142.5914","REF_FRAME":"TEME","CENTER_NAME":"EARTH","LAUNCH_DATE":"2020-02-17","MEAN_ANOMALY":"217.5099"},{"PERIOD":"95.592","ELEMENT_SET_NO":"999","EPOCH":"2021-08-24T11:52:35.226624","RA_OF_ASC_NODE":"290.5523","TLE_LINE2":"2 45192  53.0553 290.5523 0000389 168.5267 191.5731 15.06396071 84912","APOAPSIS":"547.495","PERIAPSIS":"546.956","COUNTRY_CODE":"US","OBJECT_NAME":"STARLINK-1237","MEAN_MOTION_DDOT":"0.0000000000000","SEMIMAJOR_AXIS":"6925.361","GP_ID":"183358835","CLASSIFICATION_TYPE":"U","INCLINATION":"53.0553","TIME_SYSTEM":"UTC","FILE":"3102457","OBJECT_ID":"2020-012Q","NORAD_CAT_ID":"45192","MEAN_MOTION_DOT":"-0.00001501","SITE":"AFETR","BSTAR":"-0.00008191300000","OBJECT_TYPE":"PAYLOAD","ECCENTRICITY":"0.00003890","REV_AT_EPOCH":"8491","RCS_SIZE":"LARGE","MEAN_MOTION":"15.06396071","DECAY_DATE":null,"MEAN_ELEMENT_THEORY":"SGP4","EPHEMERIS_TYPE":"0","TLE_LINE1":"1 45192U 20012Q   21236.49485216 -.00001501  00000-0 -81913-4 0  9994","ARG_OF_PERICENTER":"168.5267","REF_FRAME":"TEME","CENTER_NAME":"EARTH","LAUNCH_DATE":"2020-02-17","MEAN_ANOMALY":"191.5731"}];
